NORAD_CAT_ID,OBJECT_NAME,OBJECT_TYPE,EPOCH,MEAN_MOTION,ECCENTRICITY,INCLINATION,RA_OF_ASC_NODE,ARG_OF_PERICENTER,MEAN_ANOMALY,BSTAR,MEAN_MOTION_DOT,MEAN_MOTION_DDOT,TLE_LINE0,TLE_LINE1,TLE_LINE2,SEMIMAJOR_AXIS,PERIOD,APOGEE,PERIGEE,DECAYED
55758.0,STARLINK-5072,PAYLOAD,2023-04-03 22:00:00,15.51237153,0.0003751,70.0006,68.0084,265.2151,136.5625,-2.1751e-05,-1.443e-05,0.0,0 STARLINK-5072,1 55758U 23028T   23093.91667824 -.00001443  00000-0 -21751-4 0  9999,2 55758  70.0006  68.0084 0003751 265.2151 136.5625 15.51237153  1304,6791.25,92.829,415.662,410.567,0.0
55758.0,STARLINK-5072,PAYLOAD,2023-04-04 06:00:00,15.51200032,0.0003714,70.0006,67.097,271.8384,190.88,0.00063003,0.00036986,0.0,0 STARLINK-5072,1 55758U 23028T   23094.25001157  .00036986  00000-0  63003-3 0  9991,2 55758  70.0006  67.0970 0003714 271.8384 190.8800 15.51200032  5608,6791.358,92.831,415.746,410.701,0.0
55758.0,STARLINK-5072,PAYLOAD,2023-04-04 14:00:01,15.51251166,0.0003624,70.0006,66.1856,269.9672,253.6471,-0.0012079,-0.00070559,0.0,0 STARLINK-5072,1 55758U 23028T   23094.58334491 -.00070559  00000-0 -12079-2 0  9999,2 55758  70.0006  66.1856 0003624 269.9672 253.6471 15.51251166  1308,6791.209,92.828,415.535,410.613,0.0
55758.0,STARLINK-5072,PAYLOAD,2023-04-04 22:00:00,15.5123777,0.0003619,70.001,65.2746,264.283,320.2367,6.0896e-05,3.415e-05,0.0,0 STARLINK-5072,1 55758U 23028T   23094.91667824  .00003415  00000-0  60896-4 0  9992,2 55758  70.0010  65.2746 0003619 264.2830 320.2367 15.51237770  5707,6791.248,92.829,415.571,410.655,0.0
55758.0,STARLINK-5072,PAYLOAD,2023-04-05 14:00:01,15.51251739,0.0003595,70.0008,63.4517,266.1784,80.1834,-0.0013767,-0.000803,0.0,0 STARLINK-5072,1 55758U 23028T   23095.58334491 -.00080300  00000-0 -13767-2 0  9990,2 55758  70.0008  63.4517 0003595 266.1784  80.1834 15.51251739  5816,6791.207,92.828,415.514,410.631,0.0
55758.0,STARLINK-5072,PAYLOAD,2023-04-05 22:00:00,15.51223831,0.0003648,70.0014,62.5404,261.2442,146.021,0.00037431,0.00021883,0.0,0 STARLINK-5072,1 55758U 23028T   23095.91667824  .00021883  00000-0  37431-3 0  9990,2 55758  70.0014  62.5404 0003648 261.2442 146.0210 15.51223831  5861,6791.289,92.83,415.631,410.676,0.0
55758.0,STARLINK-5072,PAYLOAD,2023-04-06 12:00:02,15.51231384,0.0003628,70.0012,60.9455,267.1852,156.7575,-0.00049575,-0.00029187,0.0,0 STARLINK-5072,1 55758U 23028T   23096.50002315 -.00029187  00000-0 -49575-3 0  9993,2 55758  70.0012  60.9455 0003628 267.1852 156.7575 15.51231384  5959,6791.267,92.829,415.596,410.668,0.0
55758.0,STARLINK-5072,PAYLOAD,2023-04-06 14:00:01,15.51224454,0.0003631,70.0013,60.7176,265.622,263.5498,-0.00029981,-0.00017737,0.0,0 STARLINK-5072,1 55758U 23028T   23096.58335648 -.00017737  00000-0 -29981-3 0  9996,2 55758  70.0013  60.7176 0003631 265.6220 263.5498 15.51224454  1300,6791.287,92.83,415.618,410.686,0.0
55758.0,STARLINK-5072,PAYLOAD,2023-04-06 22:00:00,15.51251349,0.0003663,70.0017,59.8065,262.5009,327.4996,-0.00031568,-0.00018683,0.0,0 STARLINK-5072,1 55758U 23028T   23096.91667824 -.00018683  00000-0 -31568-3 0  9992,2 55758  70.0017  59.8065 0003663 262.5009 327.4996 15.51251349  6015,6791.208,92.828,415.561,410.586,0.0
55758.0,STARLINK-5072,PAYLOAD,2023-04-07 06:17:51,15.5123011,0.000318,70.0014,58.8616,262.5626,97.5199,2.9611e-05,1.575e-05,0.0,0 STARLINK-5072,1 55758U 23028T   23097.26239657  .00001575  00000-0  29611-4 0  9997,2 55758  70.0014  58.8616 0003180 262.5626  97.5199 15.51230110  6071,6791.27,92.83,415.295,410.976,0.0
55758.0,STARLINK-5072,PAYLOAD,2023-04-08 00:52:08,15.51223108,0.000342,69.9994,56.7472,261.4974,98.5824,1.7092e-05,8.39e-06,0.0,0 STARLINK-5072,1 55758U 23028T   23098.03621442  .00000839  00000-0  17092-4 0  9992,2 55758  69.9994  56.7472 0003420 261.4974  98.5824 15.51223108  6191,6791.291,92.83,415.478,410.833,0.0
55758.0,STARLINK-5072,PAYLOAD,2023-04-08 08:36:26,15.51219343,0.0003198,69.9994,55.8664,253.7336,106.3498,2.6449e-05,1.389e-05,0.0,0 STARLINK-5072,1 55758U 23028T   23098.35863812  .00001389  00000-0  26449-4 0  9993,2 55758  69.9994  55.8664 0003198 253.7336 106.3498 15.51219343  6249,6791.302,92.83,415.339,410.995,0.0
55758.0,STARLINK-5072,PAYLOAD,2023-04-08 22:32:33,15.50912703,0.000353,70.0015,54.2815,263.5967,96.4817,-0.00068884,-0.00039981,0.0,0 STARLINK-5072,1 55758U 23028T   23098.93927205 -.00039981  00000-0 -68884-3 0  9993,2 55758  70.0015  54.2815 0003530 263.5967  96.4817 15.50912703  6339,6792.197,92.849,416.46,411.664,0.0
55758.0,STARLINK-5072,PAYLOAD,2023-04-09 14:00:01,15.49253846,0.0003359,70.0022,52.5205,267.1324,86.6908,-0.017735,-0.00884172,0.0,0 STARLINK-5072,1 55758U 23028T   23099.58334491 -.00884172  00000-0 -17735-1 0  9991,2 55758  70.0022  52.5205 0003359 267.1324  86.6908 15.49253846  6423,6797.045,92.948,421.193,416.626,0.0
55758.0,STARLINK-5072,PAYLOAD,2023-04-09 22:00:00,15.48652639,0.0003379,70.0024,51.6125,267.4129,144.5681,-0.019661,-0.0096625,0.0,0 STARLINK-5072,1 55758U 23028T   23099.91667824 -.00966250  00000-0 -19661-1 0  9995,2 55758  70.0024  51.6125 0003379 267.4129 144.5681 15.48652639  1300,6798.804,92.984,422.966,418.371,0.0
55758.0,STARLINK-5072,PAYLOAD,2023-04-10 06:00:00,15.47947501,0.000327,70.0023,50.7053,276.2586,193.1319,-0.018168,-0.0086673,0.0,0 STARLINK-5072,1 55758U 23028T   23100.25001157 -.00866730  00000-0 -18168-1 0  9999,2 55758  70.0023  50.7053 0003270 276.2586 193.1319 15.47947501  6536,6800.868,93.026,424.957,420.509,0.0
55758.0,STARLINK-5072,PAYLOAD,2023-04-10 14:00:01,15.47292892,0.0003249,70.0023,49.7988,271.1135,254.8929,-0.018775,-0.00874684,0.0,0 STARLINK-5072,1 55758U 23028T   23100.58334491 -.00874684  00000-0 -18775-1 0  9996,2 55758  70.0023  49.7988 0003249 271.1135 254.8929 15.47292892  1309,6802.786,93.066,426.861,422.441,0.0
55758.0,STARLINK-5072,PAYLOAD,2023-04-10 22:00:00,15.46692615,0.0003314,70.0025,48.8938,266.7002,315.1165,-0.020906,-0.00960032,0.0,0 STARLINK-5072,1 55758U 23028T   23100.91667824 -.00960032  00000-0 -20906-1 0  9994,2 55758  70.0025  48.8938 0003314 266.7002 315.1165 15.46692615  6632,6804.546,93.102,428.666,424.156,0.0
55758.0,STARLINK-5072,PAYLOAD,2023-04-11 12:00:00,15.45535211,0.0003306,70.0019,47.3112,270.5815,317.0632,-0.021503,-0.00949689,0.0,0 STARLINK-5072,1 55758U 23028T   23101.50001157 -.00949689  00000-0 -21503-1 0  9990,2 55758  70.0019  47.3112 0003306 270.5815 317.0632 15.45535211  1305,6807.943,93.172,432.059,427.557,0.0
55758.0,STARLINK-5072,PAYLOAD,2023-04-12 06:00:00,15.44028073,0.0003519,70.0023,45.2804,273.7516,163.5782,-0.020612,-0.00871032,0.0,0 STARLINK-5072,1 55758U 23028T   23102.25001157 -.00871032  00000-0 -20612-1 0  9999,2 55758  70.0023  45.2804 0003519 273.7516 163.5782 15.44028073  6840,6812.372,93.263,436.635,431.84,0.0
55758.0,STARLINK-5072,PAYLOAD,2023-04-12 14:00:01,15.43375978,0.0003436,70.0019,44.3793,269.2355,220.013,-0.021286,-0.00879152,0.0,0 STARLINK-5072,1 55758U 23028T   23102.58334491 -.00879152  00000-0 -21286-1 0  9994,2 55758  70.0019  44.3793 0003436 269.2355 220.0130 15.43375978  1301,6814.291,93.302,438.498,433.815,0.0
55758.0,STARLINK-5072,PAYLOAD,2023-04-13 12:00:00,15.41613877,0.0003287,70.0018,41.9058,269.9759,268.0033,-0.024217,-0.0093746,0.0,0 STARLINK-5072,1 55758U 23028T   23103.50001157 -.00937460  00000-0 -24217-1 0  9991,2 55758  70.0018  41.9058 0003287 269.9759 268.0033 15.41613877  1301,6819.483,93.409,443.589,439.106,0.0
55758.0,STARLINK-5072,PAYLOAD,2023-04-13 22:00:00,15.40827998,0.0003541,70.0021,40.7838,266.6899,62.3885,-0.025963,-0.00975599,0.0,0 STARLINK-5072,1 55758U 23028T   23103.91667824 -.00975599  00000-0 -25963-1 0  9999,2 55758  70.0021  40.7838 0003541 266.6899  62.3885 15.40827998  7092,6821.801,93.456,446.082,441.251,0.0
55758.0,STARLINK-5072,PAYLOAD,2023-04-14 14:00:01,15.39447256,0.00034,70.002,38.9913,270.94,153.4581,-0.02346,-0.00851978,0.0,0 STARLINK-5072,1 55758U 23028T   23104.58335648 -.00851978  00000-0 -23460-1 0  9993,2 55758  70.0020  38.9913 0003400 270.9400 153.4581 15.39447256  7205,6825.88,93.54,450.066,445.424,0.0
55758.0,STARLINK-5072,PAYLOAD,2023-04-15 06:00:00,15.38170169,0.0003254,70.002,37.2024,275.1651,241.2564,-0.025496,-0.00885117,0.0,0 STARLINK-5072,1 55758U 23028T   23105.25001157 -.00885117  00000-0 -25496-1 0  9996,2 55758  70.0020  37.2024 0003254 275.1651 241.2564 15.38170169  7305,6829.657,93.618,453.745,449.3,0.0
55758.0,STARLINK-5072,PAYLOAD,2023-04-15 14:00:01,15.37490416,0.0003192,70.0021,36.3091,268.5524,292.7593,-0.024945,-0.00849827,0.0,0 STARLINK-5072,1 55758U 23028T   23105.58334491 -.00849827  00000-0 -24945-1 0  9998,2 55758  70.0021  36.3091 0003192 268.5524 292.7593 15.37490416  1302,6831.67,93.659,455.716,451.355,0.0
55758.0,STARLINK-5072,PAYLOAD,2023-04-15 22:00:01,15.36902389,0.0003262,70.0025,35.417,266.5946,338.8593,-0.029021,-0.00959921,0.0,0 STARLINK-5072,1 55758U 23028T   23105.91668981 -.00959921  00000-0 -29021-1 0  9996,2 55758  70.0025  35.4170 0003262 266.5946 338.8593 15.36902389  7403,6833.413,93.695,457.507,453.049,0.0
55758.0,STARLINK-5072,PAYLOAD,2023-04-16 10:00:00,15.35924543,0.0003184,70.0021,34.0802,272.1703,217.8933,-0.030108,-0.00964453,0.0,0 STARLINK-5072,1 55758U 23028T   23106.41667824 -.00964453  00000-0 -30108-1 0  9991,2 55758  70.0021  34.0802 0003184 272.1703 217.8933 15.35924543  7480,6836.313,93.755,460.354,456.001,0.0
55758.0,STARLINK-5072,PAYLOAD,2023-04-16 22:00:00,15.3494364,0.0003349,70.0029,32.7455,266.5585,106.4236,-0.030846,-0.00958082,0.0,0 STARLINK-5072,1 55758U 23028T   23106.91667824 -.00958082  00000-0 -30846-1 0  9996,2 55758  70.0029  32.7455 0003349 266.5585 106.4236 15.34943640  1307,6839.225,93.815,463.38,458.799,0.0
55758.0,STARLINK-5072,PAYLOAD,2023-04-17 12:00:00,15.3376033,0.0003178,70.0027,31.1908,267.6874,86.4839,-0.029702,-0.00893835,0.0,0 STARLINK-5072,1 55758U 23028T   23107.50001157 -.00893835  00000-0 -29702-1 0  9996,2 55758  70.0027  31.1908 0003178 267.6874  86.4839 15.33760330  7656,6842.742,93.887,466.782,462.433,0.0
